{
  "type": "FeatureCollection",
  "features": [
    {
      "type": "Feature",
      "properties": {
        "id": "keshwapur",
        "routeName": "1. Keshwapur Route",
        "color": "#FF6D00"
      },
      "geometry": {
        "type": "LineString",
        "coordinates": [
          [75.1421, 15.3512], [75.1410, 15.3530], [75.1395, 15.3550], [75.1380, 15.3580], [75.1360, 15.3610], [75.1402, 15.3540], [75.1410, 15.3560], [75.1300, 15.3600], [75.1220, 15.3680], [75.1150, 15.3750], [75.1215, 15.3885], [75.1234, 15.3900]
        ]
      }
    },
    {
      "type": "Feature",
      "properties": {
        "id": "pgRoute",
        "routeName": "2. PG Route (Tolankeri Onwards)",
        "color": "#AEEA00"
      },
      "geometry": {
        "type": "LineString",
        "coordinates": [
          [75.104803, 15.359245], [75.109503, 15.360280], [75.11284, 15.360809], [75.115336, 15.361428], [75.113774, 15.364896], [75.112753, 15.372129], [75.1190, 15.3850], [75.113235, 15.381945], [75.1178, 15.382508], [75.119984, 15.394207]
        ]
      }
    },
    {
      "type": "Feature",
      "properties": {
        "id": "siddharoodh",
        "routeName": "3. Siddharoodh Math Route",
        "color": "#D50000"
      },
      "geometry": {
        "type": "LineString",
        "coordinates": [
          [75.097832, 15.352331], [75.102208, 15.351665], [75.106884, 15.341191], [75.121338, 15.335785], [75.118267, 15.341502], [75.112072, 15.346944], [75.109608, 15.350946], [75.10546926617408, 15.35634730387604], [75.104803, 15.359245], [75.109503, 15.360280], [75.11284, 15.360809], [75.115336, 15.361428], [75.113774, 15.364896], [75.112753, 15.372129], [75.1190, 15.3850], [75.113235, 15.381945], [75.1178, 15.382508], [75.119984, 15.394207]
        ]
      }
    },
    {
      "type": "Feature",
      "properties": {
        "id": "gadagRoad",
        "routeName": "4. Gadag Road Route",
        "color": "#D500F9"
      },
      "geometry": {
        "type": "LineString",
        "coordinates": [
          [75.1450, 15.3520], [75.1430, 15.3540], [75.1410, 15.3560], [75.1380, 15.3580], [75.1350, 15.3600], [75.1320, 15.3620], [75.1300, 15.3640], [75.1220, 15.3680], [75.1150, 15.3750], [75.1190, 15.3850], [75.1215, 15.3885], [75.1234, 15.3900]
        ]
      }
    },
    {
      "type": "Feature",
      "properties": {
        "id": "dharwad",
        "routeName": "5. Dharwad Route",
        "color": "#2962FF"
      },
      "geometry": {
        "type": "LineString",
        "coordinates": [
          [75.0000, 15.4600], [75.0050, 15.4580], [75.0100, 15.4550], [75.0150, 15.4500], [75.0180, 15.4480], [75.0200, 15.4450], [75.0250, 15.4400], [75.0300, 15.4350], [75.0350, 15.4300], [75.0450, 15.4200], [75.0550, 15.4100], [75.0848824, 15.3957011], [75.093449, 15.393449], [75.1061771, 15.3867454], [75.1133745, 15.3819925], [75.1178, 15.382647], [75.1184117, 15.3861338], [75.1199687, 15.3941731]
        ]
      }
    },
    {
      "type": "Feature",
      "properties": {
        "id": "navanagar",
        "routeName": "6. Navanagar Route",
        "color": "#00E5FF"
      },
      "geometry": {
        "type": "LineString",
        "coordinates": [
          [75.0848824, 15.3957011], [75.093449, 15.393449], [75.1061771, 15.3867454], [75.1133745, 15.3819925], [75.1178, 15.382647], [75.1184117, 15.3861338], [75.1199687, 15.3941731]
        ]
      }
    }
  ]
}